[{"OBJECT_NAME":"STARLINK-3552","OBJECT_ID":"2022-017AX","EPOCH":"2026-03-09T22:46:59.222784","MEAN_MOTION":15.08832758,"ECCENTRICITY":0.00011223,"INCLINATION":53.2185,"RA_OF_ASC_NODE":327.9839,"ARG_OF_PERICENTER":78.4437,"MEAN_ANOMALY":281.6681,"EPHEMERIS_TYPE":0,"CLASSIFICATION_TYPE":"U","NORAD_CAT_ID":51813,"ELEMENT_SET_NO":999,"REV_AT_EPOCH":22412,"BSTAR":4.102763e-6,"MEAN_MOTION_DOT":-2.22e-6,"MEAN_MOTION_DDOT":0},{"OBJECT_NAME":"UNISAT","OBJECT_ID":"2000-057C","EPOCH":"2026-03-09T10:21:07.624800","MEAN_MOTION":15.08907267,"ECCENTRICITY":0.00363457,"INCLINATION":64.544,"RA_OF_ASC_NODE":74.146,"ARG_OF_PERICENTER":312.3548,"MEAN_ANOMALY":47.4494,"EPHEMERIS_TYPE":0,"CLASSIFICATION_TYPE":"U","NORAD_CAT_ID":26547,"ELEMENT_SET_NO":999,"REV_AT_EPOCH":38146,"BSTAR":0.00046170414,"MEAN_MOTION_DOT":7.242e-5,"MEAN_MOTION_DDOT":0}]
